SL-14 R/B               
1 16496U 86006B   26083.93193129  .00000822  00000+0  84820-4 0  9999
2 16496  82.5244 245.3878 0075519 221.3502 138.1985 14.86837080151470
COSMOS 1743             
1 16719U 86034A   26083.98116747  .00040257  00000+0  50079-3 0  9998
2 16719  82.5304  57.7660 0003474 183.7022 176.4210 15.59770814182638
SL-14 R/B               
1 16792U 86046B   26083.89479507  .00000492  00000+0  53791-4 0  9990
2 16792  82.4796  65.8105 0023204 173.8630 186.2876 14.85604378128664
SL-14 R/B               
1 16882U 86055B   26083.84331331  .00000426  00000+0  46290-4 0  9990
2 16882  82.5175 112.4279 0017338 283.1734 249.6064 14.85655439121613
AJISAI (EGS)            
1 16908U 86061A   26083.98301714 -.00000111  00000+0 -96240-4 0  9996
2 16908  50.0103  46.3189 0011320 326.4427 144.1641 12.44515611469900
SL-14 R/B               
1 17567U 87024B   26083.92265004  .00000479  00000+0  51772-4 0  9999
2 17567  82.5248  78.4417 0017465 205.8162 154.2185 14.86145886 90393
COSMOS 1833             
1 17589U 87027A   26083.93849677 -.00000277  00000+0 -12252-3 0  9998
2 17589  70.9180 293.9688 0023474 192.2824 167.7728 14.13049309 12476
SL-16 R/B               
1 17590U 87027B   26083.93852173 -.00000239  00000+0 -94898-4 0  9990
2 17590  71.0010 244.3585 0002842 106.1605 253.9832 14.17166046 17500
SL-14 R/B               
1 17912U 87038B   26083.92544795  .00000432  00000+0  47175-4 0  9996
2 17912  82.4979 282.4514 0020659 112.6357 247.7047 14.85382168 81493
COSMOS 1844             
1 17973U 87041A   26083.88674590  .00000274  00000+0  16727-3 0  9991
2 17973  70.9013   2.1220 0030791 355.7508   4.3348 14.14553610  5736
SL-14 R/B               
1 18153U 87055B   26083.96698114  .00000447  00000+0  48706-4 0  9999
2 18153  82.5014 334.6358 0019796 326.8970  33.1006 14.85644472 72208
COSMOS 1867             
1 18187U 87060A   26083.88066113 -.00000037  00000+0  23923-4 0  9991
2 18187  65.0090 264.1611 0014733 279.5782  80.3638 14.31505244 22119
SL-14 R/B               
1 18749U 88001B   26083.82867866  .00000499  00000+0  54841-4 0  9993
2 18749  82.5163 181.1258 0017982 183.5606 176.5485 14.85544149 44276
COSMOS 1933             
1 18958U 88020A   26083.88482387  .00004473  00000+0  21778-3 0  9991
2 18958  82.5122 235.8737 0005052 136.2524 223.9111 15.18124208 52539
SL-3 R/B                
1 19046U 88032B   26083.93970257  .00004484  00000+0  20923-3 0  9990
2 19046  97.5214  67.1407 0025898 176.6888 183.4524 15.20073018 54420
SL-16 R/B               
1 19120U 88039B   26083.91837817  .00000031  00000+0  37513-4 0  9990
2 19120  71.0159  36.3445 0023496 312.4484  47.4654 14.19617934960542
COSMOS 1953             
1 19210U 88050A   26083.61583344  .00006186  00000+0  21966-3 0  9994
2 19210  82.5081 143.2338 0012512  75.9278 284.3352 15.28758655 40061
