[{"OBJECT_NAME":"SL-14 R/B","OBJECT_ID":"1986-006B","EPOCH":"2026-03-24T22:21:58.863456","MEAN_MOTION":14.8683708,"ECCENTRICITY":0.00755191,"INCLINATION":82.5244,"RA_OF_ASC_NODE":245.3878,"ARG_OF_PERICENTER":221.3502,"MEAN_ANOMALY":138.1985,"EPHEMERIS_TYPE":0,"CLASSIFICATION_TYPE":"U","NORAD_CAT_ID":16496,"ELEMENT_SET_NO":999,"REV_AT_EPOCH":15147,"BSTAR":8.4820492e-5,"MEAN_MOTION_DOT":8.22e-6,"MEAN_MOTION_DDOT":0},{"OBJECT_NAME":"COSMOS 1743","OBJECT_ID":"1986-034A","EPOCH":"2026-03-24T23:32:52.869408","MEAN_MOTION":15.59770814,"ECCENTRICITY":0.00034747,"INCLINATION":82.5304,"RA_OF_ASC_NODE":57.766,"ARG_OF_PERICENTER":183.7022,"MEAN_ANOMALY":176.421,"EPHEMERIS_TYPE":0,"CLASSIFICATION_TYPE":"U","NORAD_CAT_ID":16719,"ELEMENT_SET_NO":999,"REV_AT_EPOCH":18263,"BSTAR":0.00050078778,"MEAN_MOTION_DOT":0.00040257,"MEAN_MOTION_DDOT":0},{"OBJECT_NAME":"SL-14 R/B","OBJECT_ID":"1986-046B","EPOCH":"2026-03-24T21:28:30.294048","MEAN_MOTION":14.85604378,"ECCENTRICITY":0.00232049,"INCLINATION":82.4796,"RA_OF_ASC_NODE":65.8105,"ARG_OF_PERICENTER":173.863,"MEAN_ANOMALY":186.2876,"EPHEMERIS_TYPE":0,"CLASSIFICATION_TYPE":"U","NORAD_CAT_ID":16792,"ELEMENT_SET_NO":999,"REV_AT_EPOCH":12866,"BSTAR":5.3790822e-5,"MEAN_MOTION_DOT":4.92e-6,"MEAN_MOTION_DDOT":0},{"OBJECT_NAME":"SL-14 R/B","OBJECT_ID":"1986-055B","EPOCH":"2026-03-24T20:14:22.269984","MEAN_MOTION":14.85655439,"ECCENTRICITY":0.00173386,"INCLINATION":82.5175,"RA_OF_ASC_NODE":112.4279,"ARG_OF_PERICENTER":283.1734,"MEAN_ANOMALY":249.6064,"EPHEMERIS_TYPE":0,"CLASSIFICATION_TYPE":"U","NORAD_CAT_ID":16882,"ELEMENT_SET_NO":999,"REV_AT_EPOCH":12161,"BSTAR":4.6289701e-5,"MEAN_MOTION_DOT":4.26e-6,"MEAN_MOTION_DDOT":0},{"OBJECT_NAME":"AJISAI (EGS)","OBJECT_ID":"1986-061A","EPOCH":"2026-03-24T23:35:32.680896","MEAN_MOTION":12.44515611,"ECCENTRICITY":0.00113205,"INCLINATION":50.0103,"RA_OF_ASC_NODE":46.3189,"ARG_OF_PERICENTER":326.4427,"MEAN_ANOMALY":144.1641,"EPHEMERIS_TYPE":0,"CLASSIFICATION_TYPE":"U","NORAD_CAT_ID":16908,"ELEMENT_SET_NO":999,"REV_AT_EPOCH":46990,"BSTAR":-9.6240273e-5,"MEAN_MOTION_DOT":-1.11e-6,"MEAN_MOTION_DDOT":0},{"OBJECT_NAME":"SL-14 R/B","OBJECT_ID":"1987-024B","EPOCH":"2026-03-24T22:08:36.963456","MEAN_MOTION":14.86145886,"ECCENTRICITY":0.00174652,"INCLINATION":82.5248,"RA_OF_ASC_NODE":78.4417,"ARG_OF_PERICENTER":205.8162,"MEAN_ANOMALY":154.2185,"EPHEMERIS_TYPE":0,"CLASSIFICATION_TYPE":"U","NORAD_CAT_ID":17567,"ELEMENT_SET_NO":999,"REV_AT_EPOCH":9039,"BSTAR":5.177199e-5,"MEAN_MOTION_DOT":4.79e-6,"MEAN_MOTION_DDOT":0},{"OBJECT_NAME":"COSMOS 1833","OBJECT_ID":"1987-027A","EPOCH":"2026-03-24T22:31:26.120928","MEAN_MOTION":14.13049309,"ECCENTRICITY":0.00234741,"INCLINATION":70.918,"RA_OF_ASC_NODE":293.9688,"ARG_OF_PERICENTER":192.2824,"MEAN_ANOMALY":167.7728,"EPHEMERIS_TYPE":0,"CLASSIFICATION_TYPE":"U","NORAD_CAT_ID":17589,"ELEMENT_SET_NO":999,"REV_AT_EPOCH":1247,"BSTAR":-0.00012252215,"MEAN_MOTION_DOT":-2.77e-6,"MEAN_MOTION_DDOT":0},{"OBJECT_NAME":"SL-16 R/B","OBJECT_ID":"1987-027B","EPOCH":"2026-03-24T22:31:28.277472","MEAN_MOTION":14.17166046,"ECCENTRICITY":0.00028421,"INCLINATION":71.001,"RA_OF_ASC_NODE":244.3585,"ARG_OF_PERICENTER":106.1605,"MEAN_ANOMALY":253.9832,"EPHEMERIS_TYPE":0,"CLASSIFICATION_TYPE":"U","NORAD_CAT_ID":17590,"ELEMENT_SET_NO":999,"REV_AT_EPOCH":1750,"BSTAR":-9.4898084e-5,"MEAN_MOTION_DOT":-2.39e-6,"MEAN_MOTION_DDOT":0},{"OBJECT_NAME":"SL-14 R/B","OBJECT_ID":"1987-038B","EPOCH":"2026-03-24T22:12:38.702880","MEAN_MOTION":14.85382168,"ECCENTRICITY":0.00206596,"INCLINATION":82.4979,"RA_OF_ASC_NODE":282.4514,"ARG_OF_PERICENTER":112.6357,"MEAN_ANOMALY":247.7047,"EPHEMERIS_TYPE":0,"CLASSIFICATION_TYPE":"U","NORAD_CAT_ID":17912,"ELEMENT_SET_NO":999,"REV_AT_EPOCH":8149,"BSTAR":4.7174693e-5,"MEAN_MOTION_DOT":4.32e-6,"MEAN_MOTION_DDOT":0},{"OBJECT_NAME":"COSMOS 1844","OBJECT_ID":"1987-041A","EPOCH":"2026-03-24T21:16:54.845760","MEAN_MOTION":14.1455361,"ECCENTRICITY":0.00307919,"INCLINATION":70.9013,"RA_OF_ASC_NODE":2.122,"ARG_OF_PERICENTER":355.7508,"MEAN_ANOMALY":4.3348,"EPHEMERIS_TYPE":0,"CLASSIFICATION_TYPE":"U","NORAD_CAT_ID":17973,"ELEMENT_SET_NO":999,"REV_AT_EPOCH":573,"BSTAR":0.00016726849,"MEAN_MOTION_DOT":2.74e-6,"MEAN_MOTION_DDOT":0},{"OBJECT_NAME":"SL-14 R/B","OBJECT_ID":"1987-055B","EPOCH":"2026-03-24T23:12:27.170496","MEAN_MOTION":14.85644472,"ECCENTRICITY":0.00197968,"INCLINATION":82.5014,"RA_OF_ASC_NODE":334.6358,"ARG_OF_PERICENTER":326.897,"MEAN_ANOMALY":33.1006,"EPHEMERIS_TYPE":0,"CLASSIFICATION_TYPE":"U","NORAD_CAT_ID":18153,"ELEMENT_SET_NO":999,"REV_AT_EPOCH":7220,"BSTAR":4.870592e-5,"MEAN_MOTION_DOT":4.47e-6,"MEAN_MOTION_DDOT":0},{"OBJECT_NAME":"COSMOS 1867","OBJECT_ID":"1987-060A","EPOCH":"2026-03-24T21:08:09.121632","MEAN_MOTION":14.31505244,"ECCENTRICITY":0.00147333,"INCLINATION":65.009,"RA_OF_ASC_NODE":264.1611,"ARG_OF_PERICENTER":279.5782,"MEAN_ANOMALY":80.3638,"EPHEMERIS_TYPE":0,"CLASSIFICATION_TYPE":"U","NORAD_CAT_ID":18187,"ELEMENT_SET_NO":999,"REV_AT_EPOCH":2211,"BSTAR":2.3922816e-5,"MEAN_MOTION_DOT":-3.7e-7,"MEAN_MOTION_DDOT":0},{"OBJECT_NAME":"SL-14 R/B","OBJECT_ID":"1988-001B","EPOCH":"2026-03-24T19:53:17.836224","MEAN_MOTION":14.85544149,"ECCENTRICITY":0.00179829,"INCLINATION":82.5163,"RA_OF_ASC_NODE":181.1258,"ARG_OF_PERICENTER":183.5606,"MEAN_ANOMALY":176.5485,"EPHEMERIS_TYPE":0,"CLASSIFICATION_TYPE":"U","NORAD_CAT_ID":18749,"ELEMENT_SET_NO":999,"REV_AT_EPOCH":4427,"BSTAR":5.4840966e-5,"MEAN_MOTION_DOT":4.99e-6,"MEAN_MOTION_DDOT":0},{"OBJECT_NAME":"COSMOS 1933","OBJECT_ID":"1988-020A","EPOCH":"2026-03-24T21:14:08.782368","MEAN_MOTION":15.18124208,"ECCENTRICITY":0.00050523,"INCLINATION":82.5122,"RA_OF_ASC_NODE":235.8737,"ARG_OF_PERICENTER":136.2524,"MEAN_ANOMALY":223.9111,"EPHEMERIS_TYPE":0,"CLASSIFICATION_TYPE":"U","NORAD_CAT_ID":18958,"ELEMENT_SET_NO":999,"REV_AT_EPOCH":5253,"BSTAR":0.00021777577,"MEAN_MOTION_DOT":4.473e-5,"MEAN_MOTION_DDOT":0},{"OBJECT_NAME":"SL-3 R/B","OBJECT_ID":"1988-032B","EPOCH":"2026-03-24T22:33:10.302048","MEAN_MOTION":15.20073018,"ECCENTRICITY":0.00258986,"INCLINATION":97.5214,"RA_OF_ASC_NODE":67.1407,"ARG_OF_PERICENTER":176.6888,"MEAN_ANOMALY":183.4524,"EPHEMERIS_TYPE":0,"CLASSIFICATION_TYPE":"U","NORAD_CAT_ID":19046,"ELEMENT_SET_NO":999,"REV_AT_EPOCH":5442,"BSTAR":0.00020922679,"MEAN_MOTION_DOT":4.484e-5,"MEAN_MOTION_DDOT":0},{"OBJECT_NAME":"SL-16 R/B","OBJECT_ID":"1988-039B","EPOCH":"2026-03-24T22:02:27.873888","MEAN_MOTION":14.19617934,"ECCENTRICITY":0.00234966,"INCLINATION":71.0159,"RA_OF_ASC_NODE":36.3445,"ARG_OF_PERICENTER":312.4484,"MEAN_ANOMALY":47.4654,"EPHEMERIS_TYPE":0,"CLASSIFICATION_TYPE":"U","NORAD_CAT_ID":19120,"ELEMENT_SET_NO":999,"REV_AT_EPOCH":96054,"BSTAR":3.7512524e-5,"MEAN_MOTION_DOT":3.1e-7,"MEAN_MOTION_DDOT":0},{"OBJECT_NAME":"COSMOS 1953","OBJECT_ID":"1988-050A","EPOCH":"2026-03-24T14:46:48.009216","MEAN_MOTION":15.28758655,"ECCENTRICITY":0.00125127,"INCLINATION":82.5081,"RA_OF_ASC_NODE":143.2338,"ARG_OF_PERICENTER":75.9278,"MEAN_ANOMALY":284.3352,"EPHEMERIS_TYPE":0,"CLASSIFICATION_TYPE":"U","NORAD_CAT_ID":19210,"ELEMENT_SET_NO":999,"REV_AT_EPOCH":4006,"BSTAR":0.00021966412,"MEAN_MOTION_DOT":6.186e-5,"MEAN_MOTION_DDOT":0}]
